NORAD_CAT_ID,OBJECT_NAME,OBJECT_TYPE,EPOCH,MEAN_MOTION,ECCENTRICITY,INCLINATION,RA_OF_ASC_NODE,ARG_OF_PERICENTER,MEAN_ANOMALY,BSTAR,MEAN_MOTION_DOT,MEAN_MOTION_DDOT,TLE_LINE0,TLE_LINE1,TLE_LINE2,SEMIMAJOR_AXIS,PERIOD,APOGEE,PERIGEE,DECAYED
52123.0,STARLINK-3725,PAYLOAD,2024-06-03 12:03:28,15.08840288,8.91e-05,53.2165,80.9226,85.728,274.3814,3.3754e-05,2.5e-06,0.0,0 STARLINK-3725,1 52123U 22029AM  24155.50241798  .00000250  00000-0  33754-4 0  9994,2 52123  53.2165  80.9226 0000891  85.7280 274.3814 15.08840288123685,6917.88,95.438,540.361,539.128,0.0
52123.0,STARLINK-3725,PAYLOAD,2024-06-04 03:57:20,15.08840879,0.0001227,53.2176,77.9502,81.5421,278.571,9.677e-05,1.253e-05,0.0,0 STARLINK-3725,1 52123U 22029AM  24156.16481958  .00001253  00000-0  96770-4 0  9992,2 52123  53.2176  77.9502 0001227  81.5421 278.5710 15.08840879123783,6917.878,95.437,540.592,538.894,0.0
52123.0,STARLINK-3725,PAYLOAD,2024-06-04 11:54:15,15.08845999,0.0001258,53.2183,76.4628,73.2638,286.8493,0.00012327,1.675e-05,0.0,0 STARLINK-3725,1 52123U 22029AM  24156.49601532  .00001675  00000-0  12327-3 0  9993,2 52123  53.2183  76.4628 0001258  73.2638 286.8493 15.08845999123830,6917.862,95.437,540.597,538.857,0.0
52123.0,STARLINK-3725,PAYLOAD,2024-06-04 23:01:58,15.08838794,0.0001516,53.2209,74.3801,77.5348,282.5814,9.41e-05,1.21e-05,0.0,0 STARLINK-3725,1 52123U 22029AM  24156.95970136  .00001210  00000-0  94100-4 0  9998,2 52123  53.2209  74.3801 0001516  77.5348 282.5814 15.08838794123904,6917.884,95.438,540.798,538.7,0.0
52123.0,STARLINK-3725,PAYLOAD,2024-06-05 11:45:03,15.08838962,9.79e-05,53.2177,72.0012,90.746,269.3644,-3.9583e-05,-9.18e-06,0.0,0 STARLINK-3725,1 52123U 22029AM  24157.48962057 -.00000918  00000-0 -39583-4 0  9990,2 52123  53.2177  72.0012 0000979  90.7460 269.3644 15.08838962123980,6917.884,95.438,540.426,539.071,0.0
52123.0,STARLINK-3725,PAYLOAD,2024-06-06 11:35:50,15.08842755,0.0001326,53.2191,67.5417,99.2201,260.8941,-8.5828e-06,-4.25e-06,0.0,0 STARLINK-3725,1 52123U 22029AM  24158.48322047 -.00000425  00000-0 -85828-5 0  9997,2 52123  53.2191  67.5417 0001326  99.2201 260.8941 15.08842755124137,6917.872,95.437,540.654,538.82,0.0
52123.0,STARLINK-3725,PAYLOAD,2024-06-07 17:48:10,15.08841475,0.0002646,53.2175,61.8922,92.2243,267.9052,5.1245e-05,5.27e-06,0.0,0 STARLINK-3725,1 52123U 22029AM  24159.74178390  .00000527  00000-0  51245-4 0  9993,2 52123  53.2175  61.8922 0002646  92.2243 267.9052 15.08841475124322,6917.876,95.437,541.571,537.91,0.0
52123.0,STARLINK-3725,PAYLOAD,2024-06-07 22:34:19,15.08838067,0.0001693,53.2198,61.0018,87.3454,272.7731,4.2334e-05,3.86e-06,0.0,0 STARLINK-3725,1 52123U 22029AM  24159.94050483  .00000386  00000-0  42334-4 0  9999,2 52123  53.2198  61.0018 0001693  87.3454 272.7731 15.08838067124359,6917.886,95.438,540.922,538.58,0.0
52123.0,STARLINK-3725,PAYLOAD,2024-06-08 03:20:28,15.08844413,0.0001261,53.218,60.1081,89.4516,270.662,9.2709e-05,1.188e-05,0.0,0 STARLINK-3725,1 52123U 22029AM  24160.13921833  .00001188  00000-0  92709-4 0  9990,2 52123  53.2180  60.1081 0001261  89.4516 270.6620 15.08844413124382,6917.867,95.437,540.604,538.86,0.0
52123.0,STARLINK-3725,PAYLOAD,2024-06-08 22:25:06,15.08836373,0.0001454,53.2182,56.5389,88.1348,271.9811,-6.26e-07,-2.98e-06,0.0,0 STARLINK-3725,1 52123U 22029AM  24160.93410791 -.00000298  00000-0 -62600-6 0  9996,2 52123  53.2182  56.5389 0001454  88.1348 271.9811 15.08836373124503,6917.891,95.438,540.762,538.751,0.0
52123.0,STARLINK-3725,PAYLOAD,2024-06-09 00:00:30,15.08839132,0.0001856,53.2173,56.244,87.304,272.8164,-1.4179e-06,-3.11e-06,0.0,0 STARLINK-3725,1 52123U 22029AM  24161.00034735 -.00000311  00000-0 -14179-5 0  9998,2 52123  53.2173  56.2440 0001856  87.3040 272.8164 15.08839132124512,6917.883,95.438,541.032,538.464,0.0
52123.0,STARLINK-3725,PAYLOAD,2024-06-09 22:15:54,15.08835406,0.0001379,53.2179,52.0787,80.3107,279.804,-3.7915e-05,-8.91e-06,0.0,0 STARLINK-3725,1 52123U 22029AM  24161.92771331 -.00000891  00000-0 -37915-4 0  9994,2 52123  53.2179  52.0787 0001379  80.3107 279.8040 15.08835406124658,6917.894,95.438,540.713,538.805,0.0
52123.0,STARLINK-3725,PAYLOAD,2024-06-10 09:23:35,15.08842059,0.0001336,53.2182,49.9995,82.2037,277.9106,-2.2524e-05,-6.46e-06,0.0,0 STARLINK-3725,1 52123U 22029AM  24162.39138847 -.00000646  00000-0 -22524-4 0  9993,2 52123  53.2182  49.9995 0001336  82.2037 277.9106 15.08842059124726,6917.874,95.437,540.663,538.815,0.0
52123.0,STARLINK-3725,PAYLOAD,2024-06-10 22:06:41,15.08849398,0.0001397,53.2185,47.6218,87.3935,272.7217,-0.00011413,-2.104e-05,0.0,0 STARLINK-3725,1 52123U 22029AM  24162.92131161 -.00002104  00000-0 -11413-3 0  9999,2 52123  53.2185  47.6218 0001397  87.3935 272.7217 15.08849398124800,6917.852,95.437,540.683,538.75,0.0
52123.0,STARLINK-3725,PAYLOAD,2024-06-11 09:14:22,15.08845198,0.0001481,53.2192,45.5413,93.6474,266.4688,2.145e-05,5.3e-07,0.0,0 STARLINK-3725,1 52123U 22029AM  24163.38498756  .00000053  00000-0  21450-4 0  9998,2 52123  53.2192  45.5413 0001481  93.6474 266.4688 15.08845198124877,6917.865,95.437,540.754,538.705,0.0
52123.0,STARLINK-3725,PAYLOAD,2024-06-12 01:08:13,15.08846574,0.0001512,53.2184,42.5665,91.0247,269.0918,0.00015517,2.183e-05,0.0,0 STARLINK-3725,1 52123U 22029AM  24164.04738358  .00002183  00000-0  15517-3 0  9999,2 52123  53.2184  42.5665 0001512  91.0247 269.0918 15.08846574124974,6917.86,95.437,540.771,538.679,0.0
52123.0,STARLINK-3725,PAYLOAD,2024-06-12 09:05:10,15.08840508,0.000159,53.2197,41.0795,82.3411,277.7762,6.2779e-05,7.11e-06,0.0,0 STARLINK-3725,1 52123U 22029AM  24164.37859020  .00000711  00000-0  62779-4 0  9993,2 52123  53.2197  41.0795 0001590  82.3411 277.7762 15.08840508125029,6917.879,95.438,540.844,538.644,0.0
52123.0,STARLINK-3725,PAYLOAD,2024-06-12 20:12:52,15.08833548,0.0001819,53.2197,38.9954,83.9208,276.1991,-3.6501e-06,-3.46e-06,0.0,0 STARLINK-3725,1 52123U 22029AM  24164.84227761 -.00000346  00000-0 -36501-5 0  9997,2 52123  53.2197  38.9954 0001819  83.9208 276.1991 15.08833548125096,6917.9,95.438,541.023,538.507,0.0
52123.0,STARLINK-3725,PAYLOAD,2024-06-12 21:48:15,15.08836553,0.0001696,53.2191,38.6989,87.9465,272.1722,-4.0865e-05,-9.38e-06,0.0,0 STARLINK-3725,1 52123U 22029AM  24164.90851703 -.00000938  00000-0 -40865-4 0  9997,2 52123  53.2191  38.6989 0001696  87.9465 272.1722 15.08836553125106,6917.891,95.438,540.929,538.583,0.0
52123.0,STARLINK-3725,PAYLOAD,2024-06-13 00:59:01,15.08840996,0.0001669,53.2195,38.1022,82.3676,277.7505,-1.276e-05,-4.91e-06,0.0,0 STARLINK-3725,1 52123U 22029AM  24165.04099287 -.00000491  00000-0 -12760-4 0  9991,2 52123  53.2195  38.1022 0001669  82.3676 277.7505 15.08840996125124,6917.877,95.437,540.897,538.588,0.0
52123.0,STARLINK-3725,PAYLOAD,2024-06-13 08:55:57,15.08841833,0.0001508,53.2187,36.6191,89.0207,271.0958,1.4951e-05,-5e-07,0.0,0 STARLINK-3725,1 52123U 22029AM  24165.37219106 -.00000050  00000-0  14951-4 0  9995,2 52123  53.2187  36.6191 0001508  89.0207 271.0958 15.08841833125176,6917.875,95.437,540.783,538.697,0.0
52123.0,STARLINK-3725,PAYLOAD,2024-06-13 21:39:02,15.08848215,0.0001539,53.2189,34.24,87.9424,272.1744,-4.1082e-05,-9.42e-06,0.0,0 STARLINK-3725,1 52123U 22029AM  24165.90210838 -.00000942  00000-0 -41082-4 0  9993,2 52123  53.2189  34.2400 0001539  87.9424 272.1744 15.08848215125252,6917.855,95.437,540.785,538.656,0.0
52123.0,STARLINK-3725,PAYLOAD,2024-06-14 08:46:43,15.08846333,0.0001286,53.2177,32.1568,103.1497,256.9639,-4.0978e-05,-9.4e-06,0.0,0 STARLINK-3725,1 52123U 22029AM  24166.36578636 -.00000940  00000-0 -40978-4 0  9998,2 52123  53.2177  32.1568 0001286 103.1497 256.9639 15.08846333125321,6917.861,95.437,540.616,538.836,0.0
52123.0,STARLINK-3725,PAYLOAD,2024-06-14 21:29:49,15.08835848,0.0001648,53.2196,29.7764,92.7088,267.4093,6.3894e-05,7.29e-06,0.0,0 STARLINK-3725,1 52123U 22029AM  24166.89571248  .00000729  00000-0  63894-4 0  9993,2 52123  53.2196  29.7764 0001648  92.7088 267.4093 15.08835848125402,6917.893,95.438,540.898,538.618,0.0
52123.0,STARLINK-3725,PAYLOAD,2024-06-15 21:20:36,15.08841703,0.0001413,53.219,25.3178,95.605,264.5103,-1.4784e-05,-5.23e-06,0.0,0 STARLINK-3725,1 52123U 22029AM  24167.88931273 -.00000523  00000-0 -14784-4 0  9999,2 52123  53.2190  25.3178 0001413  95.6050 264.5103 15.08841703125551,6917.875,95.437,540.718,538.763,0.0
52123.0,STARLINK-3725,PAYLOAD,2024-06-16 14:49:51,15.08835811,0.0001389,53.2189,22.0467,90.9132,269.2019,4.2146e-05,3.83e-06,0.0,0 STARLINK-3725,1 52123U 22029AM  24168.61795565  .00000383  00000-0  42146-4 0  9998,2 52123  53.2189  22.0467 0001389  90.9132 269.2019 15.08835811125668,6917.893,95.438,540.719,538.797,0.0
52123.0,STARLINK-3725,PAYLOAD,2024-06-16 19:36:00,15.08838003,0.0001382,53.2186,21.1547,90.6891,269.426,5.9407e-05,6.58e-06,0.0,0 STARLINK-3725,1 52123U 22029AM  24168.81667417  .00000658  00000-0  59407-4 0  9997,2 52123  53.2186  21.1547 0001382  90.6891 269.4260 15.08838003125695,6917.886,95.438,540.708,538.795,0.0
52123.0,STARLINK-3725,PAYLOAD,2024-06-17 21:02:11,15.08837531,0.0001356,53.2185,16.4009,96.309,263.8057,2.9603e-05,1.83e-06,0.0,0 STARLINK-3725,1 52123U 22029AM  24169.87651817  .00000183  00000-0  29603-4 0  9999,2 52123  53.2185  16.4009 0001356  96.3090 263.8057 15.08837531125854,6917.888,95.438,540.691,538.815,0.0
52123.0,STARLINK-3725,PAYLOAD,2024-06-18 06:34:29,15.08839921,0.0001377,53.2188,14.6164,95.0971,265.0178,5.1533e-05,5.32e-06,0.0,0 STARLINK-3725,1 52123U 22029AM  24170.27395619  .00000532  00000-0  51533-4 0  9995,2 52123  53.2188  14.6164 0001377  95.0971 265.0178 15.08839921125916,6917.881,95.438,540.698,538.793,0.0
52123.0,STARLINK-3725,PAYLOAD,2024-06-18 22:28:20,15.08848413,0.000167,53.2194,11.6436,105.6203,254.4973,9.0264e-07,-2.74e-06,0.0,0 STARLINK-3725,1 52123U 22029AM  24170.93635247 -.00000274  00000-0  90264-6 0  9992,2 52123  53.2194  11.6436 0001670 105.6203 254.4973 15.08848413126017,6917.855,95.437,540.875,538.564,0.0
